[{"OBJECT_NAME":"MATS","OBJECT_ID":"2022-147A","EPOCH":"2026-03-09T23:39:00.807264","MEAN_MOTION":15.0466868,"ECCENTRICITY":0.00129708,"INCLINATION":97.6844,"RA_OF_ASC_NODE":71.061,"ARG_OF_PERICENTER":166.9988,"MEAN_ANOMALY":193.1575,"EPHEMERIS_TYPE":0,"CLASSIFICATION_TYPE":"U","NORAD_CAT_ID":54227,"ELEMENT_SET_NO":999,"REV_AT_EPOCH":18284,"BSTAR":0.00029670702,"MEAN_MOTION_DOT":4.118e-5,"MEAN_MOTION_DDOT":0},{"OBJECT_NAME":"STARLINK-34564","OBJECT_ID":"2025-152L","EPOCH":"2026-03-09T12:46:03.832320","MEAN_MOTION":15.05653403,"ECCENTRICITY":0.00025131,"INCLINATION":97.6022,"RA_OF_ASC_NODE":285.3515,"ARG_OF_PERICENTER":80.3591,"MEAN_ANOMALY":279.7919,"EPHEMERIS_TYPE":0,"CLASSIFICATION_TYPE":"U","NORAD_CAT_ID":64852,"ELEMENT_SET_NO":999,"REV_AT_EPOCH":3539,"BSTAR":0.00036496596,"MEAN_MOTION_DOT":5.21e-5,"MEAN_MOTION_DDOT":0}]
